$$SOE
2461288.500000000, A.D. 2026-Sep-05 00:00:00.0000, 3.558452972032251E+08, -2.461441499018129E+06, -3.597313152527570E+07,
2461295.500000000, A.D. 2026-Sep-12 00:00:00.0000, 3.557593726300746E+08, 1.015352726438173E+07, -3.287066442028176E+07,
2461302.500000000, A.D. 2026-Sep-19 00:00:00.0000, 3.552952736803214E+08, 2.275767476314463E+07, -2.973325455003736E+07,
2461309.500000000, A.D. 2026-Sep-26 00:00:00.0000, 3.544529963662663E+08, 3.533757076127528E+07, -2.656419519209682E+07,
2461316.500000000, A.D. 2026-Oct-03 00:00:00.0000, 3.532332342664626E+08, 4.787980461945496E+07, -2.336684409932188E+07,
2461323.500000000, A.D. 2026-Oct-10 00:00:00.0000, 3.516373773341810E+08, 6.037103104898243E+07, -2.014461218254329E+07,
2461330.500000000, A.D. 2026-Oct-17 00:00:00.0000, 3.496675065933990E+08, 7.279801542587854E+07, -1.690095187641655E+07,
2461337.500000000, A.D. 2026-Oct-24 00:00:00.0000, 3.473263847923492E+08, 8.514767823169844E+07, -1.363934529983362E+07,
2461344.500000000, A.D. 2026-Oct-31 00:00:00.0000, 3.446174432167618E+08, 9.740713815934542E+07, -1.036329233616244E+07,
2461351.500000000, A.D. 2026-Nov-07 00:00:00.0000, 3.415447651631733E+08, 1.095637535810870E+08, -7.076298769871600E+06,
2461358.500000000, A.D. 2026-Nov-14 00:00:00.0000, 3.381130664825006E+08, 1.216051629096777E+08, -3.781864534606777E+06,
2461365.500000000, A.D. 2026-Nov-21 00:00:00.0000, 3.343276716318604E+08, 1.335193242093519E+08, -4.834719549258724E+05,
2461372.500000000, A.D. 2026-Nov-28 00:00:00.0000, 3.301944845296036E+08, 1.452945507594633E+08, 2.815425766064480E+06,
2461379.500000000, A.D. 2026-Dec-05 00:00:00.0000, 3.257199581523394E+08, 1.569195416580242E+08, 6.111415336077444E+06,
2461386.500000000, A.D. 2026-Dec-12 00:00:00.0000, 3.209110633716449E+08, 1.683834103644664E+08, 9.401133595691323E+06,
2461393.500000000, A.D. 2026-Dec-19 00:00:00.0000, 3.157752554948248E+08, 1.796757110264624E+08, 1.268127727245003E+07,
2461400.500000000, A.D. 2026-Dec-26 00:00:00.0000, 3.103204387328943E+08, 1.907864616079647E+08, 1.594861214477470E+07,
2461407.500000000, A.D. 2027-Jan-02 00:00:00.0000, 3.045549292419814E+08, 2.017061635581131E+08, 1.919998152095832E+07,
2461414.500000000, A.D. 2027-Jan-09 00:00:00.0000, 2.984874172231284E+08, 2.124258180159985E+08, 2.243231398131593E+07,
2461421.500000000, A.D. 2027-Jan-16 00:00:00.0000, 2.921269284754182E+08, 2.229369385771873E+08, 2.564263034923522E+07,
2461428.500000000, A.D. 2027-Jan-23 00:00:00.0000, 2.854827857942744E+08, 2.332315606390377E+08, 2.882804986293492E+07,
2461435.500000000, A.D. 2027-Jan-30 00:00:00.0000, 2.785645707306299E+08, 2.433022473700121E+08, 3.198579551677454E+07,
2461442.500000000, A.D. 2027-Feb-06 00:00:00.0000, 2.713820864426440E+08, 2.531420927674440E+08, 3.511319856092438E+07,
2461449.500000000, A.D. 2027-Feb-13 00:00:00.0000, 2.639453214595582E+08, 2.627447231717845E+08, 3.820770230973682E+07,
2461456.500000000, A.D. 2027-Feb-20 00:00:00.0000, 2.562644122402691E+08, 2.721042966186696E+08, 4.126686542761326E+07,
2461463.500000000, A.D. 2027-Feb-27 00:00:00.0000, 2.483496061456985E+08, 2.812154970140774E+08, 4.428836432774170E+07,
2461470.500000000, A.D. 2027-Mar-06 00:00:00.0000, 2.402112280416832E+08, 2.900735252632759E+08, 4.726999459589116E+07,
2461477.500000000, A.D. 2027-Mar-13 00:00:00.0000, 2.318596490937576E+08, 2.986740896159667E+08, 5.020967178945157E+07,
2461484.500000000, A.D. 2027-Mar-20 00:00:00.0000, 2.233052567547252E+08, 3.070133946142025E+08, 5.310543168789002E+07,
2461491.500000000, A.D. 2027-Mar-27 00:00:00.0000, 2.145584262499047E+08, 3.150881283182259E+08, 5.595542997573373E+07,
2461498.500000000, A.D. 2027-Apr-03 00:00:00.0000, 2.056294938384367E+08, 3.228954479846439E+08, 5.875794138243808E+07,
2461505.500000000, A.D. 2027-Apr-10 00:00:00.0000, 1.965287319611813E+08, 3.304329644372510E+08, 6.151135832371964E+07,
2461512.500000000, A.D. 2027-Apr-17 00:00:00.0000, 1.872663263223209E+08, 3.376987253261416E+08, 6.421418909010240E+07,
2461519.500000000, A.D. 2027-Apr-24 00:00:00.0000, 1.778523549868906E+08, 3.446911974136828E+08, 6.686505561921726E+07,
2461526.500000000, A.D. 2027-May-01 00:00:00.0000, 1.682967697773907E+08, 3.514092481054488E+08, 6.946269087498122E+07,
2461533.500000000, A.D. 2027-May-08 00:00:00.0000, 1.586093802443435E+08, 3.578521271531394E+08, 7.200593591391362E+07,
2461540.500000000, A.D. 2027-May-15 00:00:00.0000, 1.487998386673751E+08, 3.640194496455243E+08, 7.449373689848816E+07,
2461547.500000000, A.D. 2027-May-22 00:00:00.0000, 1.388776244593089E+08, 3.699111778420111E+08, 7.692514203074472E+07,
2461554.500000000, A.D. 2027-May-29 00:00:00.0000, 1.288520312554312E+08, 3.755276005202832E+08, 7.929929802003825E+07,
2461561.500000000, A.D. 2027-Jun-05 00:00:00.0000, 1.187321574970325E+08, 3.808693130955833E+08, 8.161544629899417E+07,
2461568.500000000, A.D. 2027-Jun-12 00:00:00.0000, 1.085268984177498E+08, 3.859371990499947E+08, 8.387291924185857E+07,
2461575.500000000, A.D. 2027-Jun-19 00:00:00.0000, 9.824493901159857E+07, 3.907324118304664E+08, 8.607113637135376E+07,
2461582.500000000, A.D. 2027-Jun-26 00:00:00.0000, 8.789474817013690E+07, 3.952563570358197E+08, 8.820960053654540E+07,
2461589.500000000, A.D. 2027-Jul-03 00:00:00.0000, 7.748457402801107E+07, 3.995106749694436E+08, 9.028789407644683E+07,
2461596.500000000, A.D. 2027-Jul-10 00:00:00.0000, 6.702244046009303E+07, 4.034972236221341E+08, 9.230567498938283E+07,
2461603.500000000, A.D. 2027-Jul-17 00:00:00.0000, 5.651614467238284E+07, 4.072180620909188E+08, 9.426267312129019E+07,
2461610.500000000, A.D. 2027-Jul-24 00:00:00.0000, 4.597325594928046E+07, 4.106754344071539E+08, 9.615868637112147E+07,
2461617.500000000, A.D. 2027-Jul-31 00:00:00.0000, 3.540111587714276E+07, 4.138717540391098E+08, 9.799357691137442E+07,
2461624.500000000, A.D. 2027-Aug-07 00:00:00.0000, 2.480683975697885E+07, 4.168095902449015E+08, 9.976726755173126E+07,
2461631.500000000, A.D. 2027-Aug-14 00:00:00.0000, 1.419731682560303E+07, 4.194916560376804E+08, 1.014797384487837E+08,
2461638.500000000, A.D. 2027-Aug-21 00:00:00.0000, 3.579209826274227E+06, 4.219207944030284E+08, 1.031310238390249E+08,
2461645.500000000, A.D. 2027-Aug-28 00:00:00.0000, -7.041042715518415E+06, 4.240999639738441E+08, 1.047212085870033E+08,
2461652.500000000, A.D. 2027-Sep-04 00:00:00.0000, -1.765722275998169E+07, 4.260322266635897E+08, 1.062504248680835E+08,
2461659.500000000, A.D. 2027-Sep-11 00:00:00.0000, -2.826332902346650E+07, 4.277207365869906E+08, 1.077188490632351E+08,
2461666.500000000, A.D. 2027-Sep-18 00:00:00.0000, -3.885357317906927E+07, 4.291687296046693E+08, 1.091266988026761E+08,
2461673.500000000, A.D. 2027-Sep-25 00:00:00.0000, -4.942237581513524E+07, 4.303795133988681E+08, 1.104742301324414E+08,
2461680.500000000, A.D. 2027-Oct-02 00:00:00.0000, -5.996436212866274E+07, 4.313564580906539E+08, 1.117617347997805E+08,
2461687.500000000, A.D. 2027-Oct-09 00:00:00.0000, -7.047435737879664E+07, 4.321029873751011E+08, 1.129895376546401E+08,
2461694.500000000, A.D. 2027-Oct-16 00:00:00.0000, -8.094738208072041E+07, 4.326225700990353E+08, 1.141579941558926E+08,
2461701.500000000, A.D. 2027-Oct-23 00:00:00.0000, -9.137864671969506E+07, 4.329187122538990E+08, 1.152674879563331E+08,
2461708.500000000, A.D. 2027-Oct-30 00:00:00.0000, -1.017635456467154E+08, 4.329949499717996E+08, 1.163184285799280E+08,
2461715.500000000, A.D. 2027-Nov-06 00:00:00.0000, -1.120976513516804E+08, 4.328548446310639E+08, 1.173112493881139E+08,
2461722.500000000, A.D. 2027-Nov-13 00:00:00.0000, -1.223767111270038E+08, 4.325019779719899E+08, 1.182464058444904E+08,
2461729.500000000, A.D. 2027-Nov-20 00:00:00.0000, -1.325966432452903E+08, 4.319399450106208E+08, 1.191243736288170E+08,
2461736.500000000, A.D. 2027-Nov-27 00:00:00.0000, -1.427535310587384E+08, 4.311723476917183E+08, 1.199456466912097E+08,
2461743.500000000, A.D. 2027-Dec-04 00:00:00.0000, -1.528436170642989E+08, 4.302027901740214E+08, 1.207107355040730E+08,
2461750.500000000, A.D. 2027-Dec-11 00:00:00.0000, -1.628632975021175E+08, 4.290348747612568E+08, 1.214201654796441E+08,
2461757.500000000, A.D. 2027-Dec-18 00:00:00.0000, -1.728091172276718E+08, 4.276721981171488E+08, 1.220744754961896E+08,
2461764.500000000, A.D. 2027-Dec-25 00:00:00.0000, -1.826777647191341E+08, 4.261183477405829E+08, 1.226742165148069E+08,
2461771.500000000, A.D. 2028-Jan-01 00:00:00.0000, -1.924660671900693E+08, 4.243768986946334E+08, 1.232199502802798E+08,
$$EOE